CZ-12 R/B               
1 66421U 25258K   25335.28804557 -.00000084  00000+0  25627-4 0  9996
2 66421  49.9955 307.6400 0064584 208.2345 151.5069 14.42315248  3063
STARLINK-35617          
1 66422U 25259A   25335.50006943 -.01809127  00000+0 -31723-1 0  9994
2 66422  42.9989 113.0888 0001443 274.8429 164.2095 15.53118348  4471
STARLINK-35618          
1 66423U 25259B   25335.50006943 -.01804527  00000+0 -31633-1 0  9994
2 66423  42.9992 113.0838 0001385 272.2887 168.6789 15.53117326  4479
STARLINK-35588          
1 66424U 25259C   25335.50006943 -.01808368  00000+0 -31708-1 0  9995
2 66424  42.9992 113.0797 0001372 275.4413 167.4452 15.53118827  4471
STARLINK-35555          
1 66425U 25259D   25335.50006943 -.01815462  00000+0 -31846-1 0  9992
2 66425  42.9993 113.0735 0001301 272.1156 172.6895 15.53121228  4473
STARLINK-35589          
1 66426U 25259E   25335.50006943 -.01805382  00000+0 -31652-1 0  9998
2 66426  42.9995 113.0700 0001293 274.1961 172.5243 15.53116477  4470
STARLINK-35611          
1 66427U 25259F   25335.50006943 -.01810475  00000+0 -31748-1 0  9994
2 66427  42.9991 113.0641 0001379 270.3438 178.2947 15.53120067  4477
STARLINK-35610          
1 66428U 25259G   25335.50006943 -.01797692  00000+0 -31506-1 0  9992
2 66428  42.9988 113.0596 0001284 275.1729 175.3853 15.53111611  4473
STARLINK-35533          
1 66429U 25259H   25335.50006943 -.01811641  00000+0 -31771-1 0  9998
2 66429  42.9989 113.0536 0001272 275.9594 176.5111 15.53121465  4472
STARLINK-35470          
1 66430U 25259J   25335.50006943 -.01812243  00000+0 -31780-1 0  9999
2 66430  42.9989 113.0500 0001325 272.9098 181.4768 15.53123419  4474
STARLINK-35439          
1 66431U 25259K   25335.50006943 -.01811649  00000+0 -31769-1 0  9996
2 66431  42.9991 113.0439 0001324 270.5194 185.7854 15.53122110  4479
STARLINK-35446          
1 66432U 25259L   25335.50006943 -.01803217  00000+0 -31608-1 0  9991
2 66432  42.9992 113.0384 0001403 271.3990 186.8244 15.53116769  4479
